[{"spaceTrack":{"CCSDS_OMM_VERS":"2.0","COMMENT":"GENERATED VIA SPACE-TRACK.ORG API","CREATION_DATE":"2021-10-26T14:56:12","ORIGINATOR":"18 SPCS","OBJECT_NAME":"STARLINK-3072","OBJECT_ID":"2021-082Z","CENTER_NAME":"EARTH","REF_FRAME":"TEME","TIME_SYSTEM":"UTC","MEAN_ELEMENT_THEORY":"SGP4","EPOCH":"2021-10-26T12:00:00.999648","MEAN_MOTION":15.69714834,"ECCENTRICITY":0.0003823,"INCLINATION":70.0012,"RA_OF_ASC_NODE":7.7433,"ARG_OF_PERICENTER":290.904,"MEAN_ANOMALY":90.4,"EPHEMERIS_TYPE":0,"CLASSIFICATION_TYPE":"U","NORAD_CAT_ID":49153,"ELEMENT_SET_NO":999,"REV_AT_EPOCH":675,"BSTAR":0.00004306,"MEAN_MOTION_DOT":0.00004924,"MEAN_MOTION_DDOT":0,"SEMIMAJOR_AXIS":6737.85,"PERIOD":91.736,"APOAPSIS":362.291,"PERIAPSIS":357.139,"OBJECT_TYPE":"PAYLOAD","RCS_SIZE":"LARGE","COUNTRY_CODE":"US","LAUNCH_DATE":"2021-09-14","SITE":"AFWTR","DECAY_DATE":null,"DECAYED":0,"FILE":3184894,"GP_ID":188177245,"TLE_LINE0":"0 STARLINK-3072","TLE_LINE1":"1 49153U 21082Z   21299.50001157  .00004924  00000-0  43060-4 0  9993","TLE_LINE2":"2 49153  70.0012   7.7433 0003823 290.9040  90.4000 15.69714834  6757"},"height_km":365.460423028283,"latitude":32.091934523286476,"launch":"60e3bf0d73359e1e20335c37","longitude":-94.83817820949938,"velocity_kms":7.692341547679783,"version":"v1.0","id":"614a3400c1471ba170b2a24b"},{"spaceTrack":{"CCSDS_OMM_VERS":"2.0","COMMENT":"GENERATED VIA SPACE-TRACK.ORG API","CREATION_DATE":"2021-10-26T14:36:12","ORIGINATOR":"18 SPCS","OBJECT_NAME":"STARLINK-3095","OBJECT_ID":"2021-082AG","CENTER_NAME":"EARTH","REF_FRAME":"TEME","TIME_SYSTEM":"UTC","MEAN_ELEMENT_THEORY":"SGP4","EPOCH":"2021-10-26T12:00:00.999648","MEAN_MOTION":15.69765418,"ECCENTRICITY":0.0004027,"INCLINATION":70.0006,"RA_OF_ASC_NODE":7.7177,"ARG_OF_PERICENTER":292.9664,"MEAN_ANOMALY":107.4643,"EPHEMERIS_TYPE":0,"CLASSIFICATION_TYPE":"U","NORAD_CAT_ID":49160,"ELEMENT_SET_NO":999,"REV_AT_EPOCH":783,"BSTAR":-0.00021762,"MEAN_MOTION_DOT":-0.00026132,"MEAN_MOTION_DDOT":0,"SEMIMAJOR_AXIS":6737.705,"PERIOD":91.733,"APOAPSIS":362.283,"PERIAPSIS":356.857,"OBJECT_TYPE":"PAYLOAD","RCS_SIZE":"LARGE","COUNTRY_CODE":"US","LAUNCH_DATE":"2021-09-14","SITE":"AFWTR","DECAY_DATE":null,"DECAYED":0,"FILE":3184599,"GP_ID":188169897,"TLE_LINE0":"0 STARLINK-3095","TLE_LINE1":"1 49160U 21082AG  21299.50001157 -.00026132  00000-0 -21762-3 0  9992","TLE_LINE2":"2 49160  70.0006   7.7177 0004027 292.9664 107.4643 15.69765418  7830"},"height_km":363.01947911926254,"latitude":14.245743147211,"launch":"60e3bf0d73359e1e20335c37","longitude":-87.01848965319259,"velocity_kms":7.692137607767573,"version":"v1.0","id":"614a3400c1471ba170b2a24c"},{"spaceTrack":{"CCSDS_OMM_VERS":"2.0","COMMENT":"GENERATED VIA SPACE-TRACK.ORG API","CREATION_DATE":"2021-10-26T07:06:12","ORIGINATOR":"18 SPCS","OBJECT_NAME":"STARLINK-3119","OBJECT_ID":"2021-082R","CENTER_NAME":"EARTH","REF_FRAME":"TEME","TIME_SYSTEM":"UTC","MEAN_ELEMENT_THEORY":"SGP4","EPOCH":"2021-10-26T04:00:01.999584","MEAN_MOTION":15.69701615,"ECCENTRICITY":0.0003849,"INCLINATION":69.9998,"RA_OF_ASC_NODE":8.6899,"ARG_OF_PERICENTER":286.4889,"MEAN_ANOMALY":1.1172,"EPHEMERIS_TYPE":0,"CLASSIFICATION_TYPE":"U","NORAD_CAT_ID":49145,"ELEMENT_SET_NO":999,"REV_AT_EPOCH":670,"BSTAR":0.00044593,"MEAN_MOTION_DOT":0.00053259,"MEAN_MOTION_DDOT":0,"SEMIMAJOR_AXIS":6737.888,"PERIOD":91.737,"APOAPSIS":362.346,"PERIAPSIS":357.159,"OBJECT_TYPE":"PAYLOAD","RCS_SIZE":"LARGE","COUNTRY_CODE":"US","LAUNCH_DATE":"2021-09-14","SITE":"AFWTR","DECAY_DATE":null,"DECAYED":0,"FILE":3184353,"GP_ID":188165863,"TLE_LINE0":"0 STARLINK-3119","TLE_LINE1":"1 49145U 21082R   21299.16668981  .00053259  00000-0  44593-3 0  9996","TLE_LINE2":"2 49145  69.9998   8.6899 0003849 286.4889   1.1172 15.69701615  6700"},"height_km":367.4158882385382,"latitude":41.74517971729259,"launch":"60e3bf0d73359e1e20335c37","longitude":-100.55377248040743,"velocity_kms":7.692175099285029,"version":"v1.0","id":"614a3400c1471ba170b2a24e"},{"spaceTrack":{"CCSDS_OMM_VERS":"2.0","COMMENT":"GENERATED VIA SPACE-TRACK.ORG API","CREATION_DATE":"2021-10-26T07:06:12","ORIGINATOR":"18 SPCS","OBJECT_NAME":"STARLINK-3078","OBJECT_ID":"2021-082E","CENTER_NAME":"EARTH","REF_FRAME":"TEME","TIME_SYSTEM":"UTC","MEAN_ELEMENT_THEORY":"SGP4","EPOCH":"2021-10-26T06:00:02.000160","MEAN_MOTION":15.69763727,"ECCENTRICITY":0.0004056,"INCLINATION":70.0011,"RA_OF_ASC_NODE":8.4827,"ARG_OF_PERICENTER":287.0726,"MEAN_ANOMALY":89.9681,"EPHEMERIS_TYPE":0,"CLASSIFICATION_TYPE":"U","NORAD_CAT_ID":49134,"ELEMENT_SET_NO":999,"REV_AT_EPOCH":791,"BSTAR":-0.000053375,"MEAN_MOTION_DOT":-0.00006584,"MEAN_MOTION_DDOT":0,"SEMIMAJOR_AXIS":6737.71,"PERIOD":91.734,"APOAPSIS":362.308,"PERIAPSIS":356.842,"OBJECT_TYPE":"PAYLOAD","RCS_SIZE":"LARGE","COUNTRY_CODE":"US","LAUNCH_DATE":"2021-09-14","SITE":"AFWTR","DECAY_DATE":null,"DECAYED":0,"FILE":3184344,"GP_ID":188165829,"TLE_LINE0":"0 STARLINK-3078","TLE_LINE1":"1 49134U 21082E   21299.25002315 -.00006584  00000-0 -53375-4 0  9997","TLE_LINE2":"2 49134  70.0011   8.4827 0004056 287.0726  89.9681 15.69763727  7919"},"height_km":371.8562609295377,"latitude":59.72550133300445,"launch":"60e3bf0d73359e1e20335c37","longitude":-119.97449693147274,"velocity_kms":7.691095155003626,"version":"v1.0","id":"614a3400c1471ba170b2a250"},{"spaceTrack":{"CCSDS_OMM_VERS":"2.0","COMMENT":"GENERATED VIA SPACE-TRACK.ORG API","CREATION_DATE":"2021-10-26T14:26:12","ORIGINATOR":"18 SPCS","OBJECT_NAME":"STARLINK-3060","OBJECT_ID":"2021-082AB","CENTER_NAME":"EARTH","REF_FRAME":"TEME","TIME_SYSTEM":"UTC","MEAN_ELEMENT_THEORY":"SGP4","EPOCH":"2021-10-26T12:00:00.999648","MEAN_MOTION":15.70318673,"ECCENTRICITY":0.0004388,"INCLINATION":69.9994,"RA_OF_ASC_NODE":7.7333,"ARG_OF_PERICENTER":279.1031,"MEAN_ANOMALY":105.0262,"EPHEMERIS_TYPE":0,"CLASSIFICATION_TYPE":"U","NORAD_CAT_ID":49155,"ELEMENT_SET_NO":999,"REV_AT_EPOCH":783,"BSTAR":-0.020271,"MEAN_MOTION_DOT":-0.02165181,"MEAN_MOTION_DDOT":0,"SEMIMAJOR_AXIS":6736.123,"PERIOD":91.701,"APOAPSIS":360.943,"PERIAPSIS":355.032,"OBJECT_TYPE":"PAYLOAD","RCS_SIZE":"LARGE","COUNTRY_CODE":"US","LAUNCH_DATE":"2021-09-14","SITE":"AFWTR","DECAY_DATE":null,"DECAYED":0,"FILE":3184525,"GP_ID":188168213,"TLE_LINE0":"0 STARLINK-3060","TLE_LINE1":"1 49155U 21082AB  21299.50001157 -.02165181  00000-0 -20271-1 0  9998","TLE_LINE2":"2 49155  69.9994   7.7333 0004388 279.1031 105.0262 15.70318673  7836"},"height_km":365.02070318339975,"latitude":29.369728241372954,"launch":"60e3bf0d73359e1e20335c37","longitude":-93.484220591761,"velocity_kms":7.692500858533948,"version":"v1.0","id":"614a3400c1471ba170b2a251"},{"spaceTrack":{"CCSDS_OMM_VERS":"2.0","COMMENT":"GENERATED VIA SPACE-TRACK.ORG API","CREATION_DATE":"2021-10-26T07:06:12","ORIGINATOR":"18 SPCS","OBJECT_NAME":"STARLINK-3084","OBJECT_ID":"2021-082G","CENTER_NAME":"EARTH","REF_FRAME":"TEME","TIME_SYSTEM":"UTC","MEAN_ELEMENT_THEORY":"SGP4","EPOCH":"2021-10-26T04:00:01.999584","MEAN_MOTION":15.6971513,"ECCENTRICITY":0.000357,"INCLINATION":70.001,"RA_OF_ASC_NODE":8.7244,"ARG_OF_PERICENTER":284.5602,"MEAN_ANOMALY":335.3675,"EPHEMERIS_TYPE":0,"CLASSIFICATION_TYPE":"U","NORAD_CAT_ID":49136,"ELEMENT_SET_NO":999,"REV_AT_EPOCH":670,"BSTAR":0.00043929,"MEAN_MOTION_DOT":0.00052485,"MEAN_MOTION_DDOT":0,"SEMIMAJOR_AXIS":6737.849,"PERIOD":91.736,"APOAPSIS":362.119,"PERIAPSIS":357.309,"OBJECT_TYPE":"PAYLOAD","RCS_SIZE":"LARGE","COUNTRY_CODE":"US","LAUNCH_DATE":"2021-09-14","SITE":"AFWTR","DECAY_DATE":null,"DECAYED":0,"FILE":3184348,"GP_ID":188165853,"TLE_LINE0":"0 STARLINK-3084","TLE_LINE1":"1 49136U 21082G   21299.16668981  .00052485  00000-0  43929-3 0  9998","TLE_LINE2":"2 49136  70.0010   8.7244 0003570 284.5602 335.3675 15.69715130  6703"},"height_km":372.4072941530694,"latitude":64.08339168627107,"launch":"60e3bf0d73359e1e20335c37","longitude":-129.7931852551638,"velocity_kms":7.691290056652713,"version":"v1.0","id":"614a3400c1471ba170b2a252"},{"spaceTrack":{"CCSDS_OMM_VERS":"2.0","COMMENT":"GENERATED VIA SPACE-TRACK.ORG API","CREATION_DATE":"2021-10-26T14:36:12","ORIGINATOR":"18 SPCS","OBJECT_NAME":"STARLINK-3054","OBJECT_ID":"2021-082AP","CENTER_NAME":"EARTH","REF_FRAME":"TEME","TIME_SYSTEM":"UTC","MEAN_ELEMENT_THEORY":"SGP4","EPOCH":"2021-10-26T12:00:00.999648","MEAN_MOTION":15.69719885,"ECCENTRICITY":0.0004048,"INCLINATION":70.0004,"RA_OF_ASC_NODE":7.7075,"ARG_OF_PERICENTER":293.0601,"MEAN_ANOMALY":115.9066,"EPHEMERIS_TYPE":0,"CLASSIFICATION_TYPE":"U","NORAD_CAT_ID":49167,"ELEMENT_SET_NO":999,"REV_AT_EPOCH":796,"BSTAR":0.00021987,"MEAN_MOTION_DOT":0.00026088,"MEAN_MOTION_DDOT":0,"SEMIMAJOR_AXIS":6737.835,"PERIOD":91.736,"APOAPSIS":362.428,"PERIAPSIS":356.973,"OBJECT_TYPE":"PAYLOAD","RCS_SIZE":"LARGE","COUNTRY_CODE":"US","LAUNCH_DATE":"2021-09-14","SITE":"AFWTR","DECAY_DATE":null,"DECAYED":0,"FILE":3184626,"GP_ID":188170289,"TLE_LINE0":"0 STARLINK-3054","TLE_LINE1":"1 49167U 21082AP  21299.50001157  .00026088  00000-0  21987-3 0  9996","TLE_LINE2":"2 49167  70.0004   7.7075 0004048 293.0601 115.9066 15.69719885  7962"},"height_km":362.9261752124494,"latitude":6.228441929167902,"launch":"60e3bf0d73359e1e20335c37","longitude":-84.01924545046589,"velocity_kms":7.691649964600954,"version":"v1.0","id":"614a3400c1471ba170b2a255"}]